NORAD_CAT_ID,OBJECT_NAME,OBJECT_TYPE,EPOCH,MEAN_MOTION,ECCENTRICITY,INCLINATION,RA_OF_ASC_NODE,ARG_OF_PERICENTER,MEAN_ANOMALY,BSTAR,MEAN_MOTION_DOT,MEAN_MOTION_DDOT,TLE_LINE0,TLE_LINE1,TLE_LINE2,SEMIMAJOR_AXIS,PERIOD,APOGEE,PERIGEE,DECAYED
53419.0,STARLINK-4476,PAYLOAD,2024-06-20 22:05:14,15.08839008,0.0001461,53.2186,47.792,104.9395,255.1759,2.3082e-05,7.9e-07,0.0,0 STARLINK-4476,1 53419U 22097AH  24172.92031196  .00000079  00000-0  23082-4 0  9994,2 53419  53.2186  47.7920 0001461 104.9395 255.1759 15.08839008104002,6917.883,95.438,540.759,538.738,0.0
53419.0,STARLINK-4476,PAYLOAD,2024-06-21 20:20:38,15.08838998,0.0001503,53.2194,43.631,102.6506,257.4655,9.5698e-05,1.235e-05,0.0,0 STARLINK-4476,1 53419U 22097AH  24173.84767088  .00001235  00000-0  95698-4 0  9999,2 53419  53.2194  43.6310 0001503 102.6506 257.4655 15.08838998103685,6917.883,95.438,540.788,538.709,0.0
53419.0,STARLINK-4476,PAYLOAD,2024-06-21 21:56:01,15.08840491,0.0001667,53.2192,43.3337,114.9213,245.1952,3.9895e-05,3.47e-06,0.0,0 STARLINK-4476,1 53419U 22097AH  24173.91391096  .00000347  00000-0  39895-4 0  9999,2 53419  53.2192  43.3337 0001667 114.9213 245.1952 15.08840491104159,6917.879,95.438,540.897,538.591,0.0
53419.0,STARLINK-4476,PAYLOAD,2024-06-22 21:46:49,15.0883894,0.000138,53.2182,38.8745,101.8754,258.2393,6.786e-05,7.92e-06,0.0,0 STARLINK-4476,1 53419U 22097AH  24174.90751227  .00000792  00000-0  67860-4 0  9992,2 53419  53.2182  38.8745 0001380 101.8754 258.2393 15.08838940104304,6917.884,95.438,540.703,538.794,0.0
53419.0,STARLINK-4476,PAYLOAD,2024-06-23 00:57:35,15.08839267,0.0001383,53.2182,38.2798,101.8481,258.2667,6.797e-05,7.94e-06,0.0,0 STARLINK-4476,1 53419U 22097AH  24175.03999217  .00000794  00000-0  67970-4 0  9994,2 53419  53.2182  38.2798 0001383 101.8481 258.2667 15.08839267103863,6917.883,95.438,540.704,538.791,0.0
53419.0,STARLINK-4476,PAYLOAD,2024-06-23 13:40:40,15.08839343,0.0001356,53.2182,35.901,99.3339,260.7806,6.9351e-05,8.16e-06,0.0,0 STARLINK-4476,1 53419U 22097AH  24175.56991236  .00000816  00000-0  69351-4 0  9995,2 53419  53.2182  35.9010 0001356  99.3339 260.7806 15.08839343104406,6917.882,95.438,540.685,538.809,0.0
53419.0,STARLINK-4476,PAYLOAD,2024-06-23 21:37:36,15.08839211,0.0001344,53.2183,34.414,99.963,260.1514,5.835e-05,6.41e-06,0.0,0 STARLINK-4476,1 53419U 22097AH  24175.90111289  .00000641  00000-0  58350-4 0  9998,2 53419  53.2183  34.4140 0001344  99.9630 260.1514 15.08839211104451,6917.883,95.438,540.678,538.818,0.0
53419.0,STARLINK-4476,PAYLOAD,2024-06-24 00:48:22,15.0883949,0.0001347,53.2183,33.8193,100.1742,259.9402,5.8145e-05,6.38e-06,0.0,0 STARLINK-4476,1 53419U 22097AH  24176.03359275  .00000638  00000-0  58145-4 0  9990,2 53419  53.2183  33.8193 0001347 100.1742 259.9402 15.08839490104477,6917.882,95.438,540.679,538.815,0.0
53419.0,STARLINK-4476,PAYLOAD,2024-06-24 19:53:00,15.08834915,0.0001348,53.2182,30.2508,98.6609,261.4535,2.0605e-05,4e-07,0.0,0 STARLINK-4476,1 53419U 22097AH  24176.82847837  .00000040  00000-0  20605-4 0  9990,2 53419  53.2182  30.2508 0001348  98.6609 261.4535 15.08834915104136,6917.896,95.438,540.693,538.828,0.0
53419.0,STARLINK-4476,PAYLOAD,2024-06-24 21:28:23,15.08834348,0.0001335,53.2181,29.9535,97.1161,262.9983,1.4217e-05,-6.2e-07,0.0,0 STARLINK-4476,1 53419U 22097AH  24176.89471910 -.00000062  00000-0  14217-4 0  9999,2 53419  53.2181  29.9535 0001335  97.1161 262.9983 15.08834348104608,6917.898,95.438,540.686,538.839,0.0
53419.0,STARLINK-4476,PAYLOAD,2024-06-25 21:19:10,15.08842283,0.0001307,53.2178,25.4928,89.6719,270.4423,8.219e-05,1.02e-05,0.0,0 STARLINK-4476,1 53419U 22097AH  24177.88831436  .00001020  00000-0  82190-4 0  9991,2 53419  53.2178  25.4928 0001307  89.6719 270.4423 15.08842283104751,6917.873,95.437,540.643,538.834,0.0
53419.0,STARLINK-4476,PAYLOAD,2024-06-27 06:42:16,15.08843131,0.0001451,53.2173,19.2503,80.1389,279.9767,9.4111e-05,1.21e-05,0.0,0 STARLINK-4476,1 53419U 22097AH  24179.27935522  .00001210  00000-0  94111-4 0  9994,2 53419  53.2173  19.2503 0001451  80.1389 279.9767 15.08843131104506,6917.871,95.437,540.74,538.732,0.0
53419.0,STARLINK-4476,PAYLOAD,2024-06-27 19:25:21,15.08842435,0.000196,53.2149,16.8717,82.4221,277.6993,1.0223e-05,-1.25e-06,0.0,0 STARLINK-4476,1 53419U 22097AH  24179.80927988 -.00000125  00000-0  10223-4 0  9997,2 53419  53.2149  16.8717 0001960  82.4221 277.6993 15.08842435105046,6917.873,95.437,541.094,538.382,0.0
53419.0,STARLINK-4476,PAYLOAD,2024-06-28 06:33:03,15.08847943,0.0001359,53.2186,14.7895,83.4186,276.696,7.629e-05,9.27e-06,0.0,0 STARLINK-4476,1 53419U 22097AH  24180.27295380  .00000927  00000-0  76290-4 0  9999,2 53419  53.2186  14.7895 0001359  83.4186 276.6960 15.08847943105114,6917.856,95.437,540.661,538.781,0.0
53419.0,STARLINK-4476,PAYLOAD,2024-06-28 19:16:07,15.08841604,0.0001422,53.2181,12.4106,87.1073,273.0081,0.00023454,3.447e-05,0.0,0 STARLINK-4476,1 53419U 22097AH  24180.80286902  .00003447  00000-0  23454-3 0  9991,2 53419  53.2181  12.4106 0001422  87.1073 273.0081 15.08841604104736,6917.875,95.437,540.724,538.757,0.0
53419.0,STARLINK-4476,PAYLOAD,2024-06-29 12:45:23,15.08828405,0.0002032,53.2175,9.1376,87.7399,272.3826,1.3628e-05,-7.1e-07,0.0,0 STARLINK-4476,1 53419U 22097AH  24181.53152335 -.00000071  00000-0  13628-4 0  9998,2 53419  53.2175   9.1376 0002032  87.7399 272.3826 15.08828405104841,6917.916,95.438,541.187,538.375,0.0
53419.0,STARLINK-4476,PAYLOAD,2024-06-29 19:06:56,15.08821062,0.000144,53.2155,7.9501,79.7385,280.3769,-9.9765e-05,-1.874e-05,0.0,0 STARLINK-4476,1 53419U 22097AH  24181.79648867 -.00001874  00000-0 -99765-4 0  9995,2 53419  53.2155   7.9501 0001440  79.7385 280.3769 15.08821062105346,6917.938,95.439,540.799,538.807,0.0
53419.0,STARLINK-4476,PAYLOAD,2024-06-30 12:36:10,15.08839602,0.0001391,53.2189,4.6796,76.8121,283.3026,0.00010634,1.405e-05,0.0,0 STARLINK-4476,1 53419U 22097AH  24182.52512299  .00001405  00000-0  10634-3 0  9991,2 53419  53.2189   4.6796 0001391  76.8121 283.3026 15.08839602104992,6917.882,95.438,540.709,538.784,0.0
53419.0,STARLINK-4476,PAYLOAD,2024-06-30 18:57:43,15.08849163,0.0001342,53.2179,3.4907,68.0707,292.0428,0.0010712,0.00016805,0.0,0 STARLINK-4476,1 53419U 22097AH  24182.79008556  .00016805  00000-0  10712-2 0  9992,2 53419  53.2179   3.4907 0001342  68.0707 292.0428 15.08849163105493,6917.852,95.437,540.646,538.789,0.0
53419.0,STARLINK-4476,PAYLOAD,2024-07-01 04:30:01,15.08875806,0.0001369,53.218,1.7062,65.0601,295.0533,0.001333,0.00021011,0.0,0 STARLINK-4476,1 53419U 22097AH  24183.18751701  .00021011  00000-0  13330-2 0  9997,2 53419  53.2180   1.7062 0001369  65.0601 295.0533 15.08875806105096,6917.771,95.435,540.583,538.689,0.0
53419.0,STARLINK-4476,PAYLOAD,2024-07-01 12:26:57,15.08848592,0.0002582,53.2175,0.2189,65.3697,294.7563,0.00061585,9.529e-05,0.0,0 STARLINK-4476,1 53419U 22097AH  24183.51872346  .00009529  00000-0  61585-3 0  9999,2 53419  53.2175   0.2189 0002582  65.3697 294.7563 15.08848592105147,6917.854,95.437,541.505,537.933,0.0
53419.0,STARLINK-4476,PAYLOAD,2024-07-01 18:48:30,15.08832253,0.0001121,53.2174,359.0303,72.4491,287.6624,0.0013834,0.00021793,0.0,0 STARLINK-4476,1 53419U 22097AH  24183.78368401  .00021793  00000-0  13834-2 0  9990,2 53419  53.2174 359.0303 0001121  72.4491 287.6624 15.08832253105188,6917.904,95.438,540.545,538.994,0.0
53419.0,STARLINK-4476,PAYLOAD,2024-07-02 10:42:21,15.08848715,0.0002132,53.2172,356.057,90.1064,270.0172,0.0011708,0.00018399,0.0,0 STARLINK-4476,1 53419U 22097AH  24184.44608629  .00018399  00000-0  11708-2 0  9999,2 53419  53.2172 356.0570 0002132  90.1064 270.0172 15.08848715105280,6917.854,95.437,541.194,538.244,0.0
53419.0,STARLINK-4476,PAYLOAD,2024-07-02 18:39:17,15.08837223,9.69e-05,53.2166,354.57,85.8006,274.3097,0.0014381,0.00022672,0.0,0 STARLINK-4476,1 53419U 22097AH  24184.77728776  .00022672  00000-0  14381-2 0  9990,2 53419  53.2166 354.5700 0000969  85.8006 274.3097 15.08837223105335,6917.889,95.438,540.424,539.084,0.0
53419.0,STARLINK-4476,PAYLOAD,2024-07-02 21:50:03,15.08849059,9.44e-05,53.2161,353.974,73.7683,286.3413,0.0019521,0.00030924,0.0,0 STARLINK-4476,1 53419U 22097AH  24184.90976670  .00030924  00000-0  19521-2 0  9993,2 53419  53.2161 353.9740 0000944  73.7683 286.3413 15.08849059105815,6917.853,95.437,540.371,539.065,0.0
53419.0,STARLINK-4476,PAYLOAD,2024-07-03 18:30:04,15.08845589,9.54e-05,53.2159,350.1083,85.5043,274.6058,0.00056519,8.72e-05,0.0,0 STARLINK-4476,1 53419U 22097AH  24185.77088860  .00008720  00000-0  56519-3 0  9992,2 53419  53.2159 350.1083 0000954  85.5043 274.6058 15.08845589105485,6917.863,95.437,540.388,539.068,0.0
53419.0,STARLINK-4476,PAYLOAD,2024-07-04 10:23:56,15.08835775,0.000124,53.2158,347.1357,92.9562,267.1572,-1.2387e-07,-2.9e-06,0.0,0 STARLINK-4476,1 53419U 22097AH  24186.43328941 -.00000290  00000-0 -12387-6 0  9997,2 53419  53.2158 347.1357 0001240  92.9562 267.1572 15.08835775105586,6917.893,95.438,540.616,538.9,0.0
53419.0,STARLINK-4476,PAYLOAD,2024-07-04 18:20:51,15.08841454,9.9e-05,53.2157,345.646,95.0718,265.0387,0.00067491,0.0001047,0.0,0 STARLINK-4476,1 53419U 22097AH  24186.76448929  .00010470  00000-0  67491-3 0  9994,2 53419  53.2157 345.6460 0000990  95.0718 265.0387 15.08841454106090,6917.876,95.437,540.426,539.056,0.0
53419.0,STARLINK-4476,PAYLOAD,2024-07-05 03:53:10,15.08858684,8.72e-05,53.2157,343.8616,90.5406,269.5686,0.0010342,0.00016218,0.0,0 STARLINK-4476,1 53419U 22097AH  24187.16192564  .00016218  00000-0  10342-2 0  9998,2 53419  53.2157 343.8616 0000872  90.5406 269.5686 15.08858684105695,6917.823,95.436,540.292,539.085,0.0
53419.0,STARLINK-4476,PAYLOAD,2024-07-05 10:14:43,15.08840642,0.0001104,53.2162,342.6738,84.632,275.4798,0.00022237,3.253e-05,0.0,0 STARLINK-4476,1 53419U 22097AH  24187.42688841  .00003253  00000-0  22237-3 0  9997,2 53419  53.2162 342.6738 0001104  84.6320 275.4798 15.08840642105731,6917.878,95.438,540.507,538.98,0.0
